DELTA 2 R/B(1)          
1 20453U 90008B   26014.47456007  .00039300  00000+0  57667-3 0  9995
2 20453  35.6031 168.6380 0102031 117.2114 243.9060 15.48554796917702
COSMOS 2058             
1 20465U 90010A   26014.21495237  .00001972  00000+0  11690-3 0  9991
2 20465  82.4687 101.0856 0010363 156.4625 203.7081 15.10806754934012
SL-14 R/B               
1 20466U 90010B   26014.32398948  .00000356  00000+0  40167-4 0  9992
2 20466  82.5042 318.4463 0021230 116.8369 243.5020 14.83508467920421
SL-14 R/B               
1 20511U 90018B   26014.22186486  .00000306  00000+0  35571-4 0  9990
2 20511  82.5215 274.0083 0014881 271.9318  88.0192 14.82085181914517
HST                     
1 20580U 90037B   26014.44270454  .00004833  00000+0  16133-3 0  9991
2 20580  28.4675  49.8067 0001896 219.5673 140.4784 15.28532978765006
SL-16 R/B               
1 20625U 90046B   26014.54717879  .00000087  00000+0  69665-4 0  9995
2 20625  70.9996  51.6217 0013358  17.2690 342.8884 14.15007475840737
COSMOS 2084             
1 20663U 90055A   26014.52100332  .00001817  00000+0  13991-3 0  9997
2 20663  62.7890 160.2760 0026136 179.6115 180.5011 15.05250565928167
SL-6 R/B(2)             
1 20666U 90055D   26014.49723959  .00001285  00000+0  10880-3 0  9995
2 20666  62.7824  78.0958 0016891 328.5281  31.4806 15.03261234930047
SL-8 R/B                
1 20775U 90078B   26014.24383457  .00011088  00000+0  33588-3 0  9991
2 20775  82.9057 300.1937 0368791 196.4567 162.4423 14.87065593801200
SL-8 R/B                
1 21088U 91006B   26014.58130719 -.00000018  00000+0 -33225-4 0  9991
2 21088  82.9406 210.2828 0022332 183.8427 230.7969 13.77492277756629
OKEAN-3                 
1 21397U 91039A   26014.54352902  .00001284  00000+0  89869-4 0  9995
2 21397  82.5157  29.2857 0015476 148.9929 211.2215 15.04346162856892
COSMOS 2151             
1 21422U 91042A   26014.58236062  .00001322  00000+0  10449-3 0  9990
2 21422  82.4983 135.8524 0011395 239.0210 120.9895 14.99845781855087
