CCSDS_OMM_VERS = 2.0
CREATION_DATE  = 
ORIGINATOR     = 

OBJECT_NAME    = DELTA 2 R/B(1)
OBJECT_ID      = 1990-008B
CENTER_NAME    = EARTH
REF_FRAME      = TEME
TIME_SYSTEM    = UTC
MEAN_ELEMENT_THEORY = SGP/SGP4

EPOCH          = 2026-01-14T11:23:21.990048
MEAN_MOTION    = 15.48554796
ECCENTRICITY   = .01020318
INCLINATION    = 35.6031
RA_OF_ASC_NODE = 168.6380
ARG_OF_PERICENTER = 117.2114
MEAN_ANOMALY   = 243.9060

EPHEMERIS_TYPE = 0
CLASSIFICATION_TYPE = U
NORAD_CAT_ID   = 20453
ELEMENT_SET_NO = 999
REV_AT_EPOCH   = 91770
BSTAR          = .57666786E-3
MEAN_MOTION_DOT = .393E-3
MEAN_MOTION_DDOT = 0

CCSDS_OMM_VERS = 2.0
CREATION_DATE  = 
ORIGINATOR     = 

OBJECT_NAME    = COSMOS 2058
OBJECT_ID      = 1990-010A
CENTER_NAME    = EARTH
REF_FRAME      = TEME
TIME_SYSTEM    = UTC
MEAN_ELEMENT_THEORY = SGP/SGP4

EPOCH          = 2026-01-14T05:09:31.884768
MEAN_MOTION    = 15.10806754
ECCENTRICITY   = .00103636
INCLINATION    = 82.4687
RA_OF_ASC_NODE = 101.0856
ARG_OF_PERICENTER = 156.4625
MEAN_ANOMALY   = 203.7081

EPHEMERIS_TYPE = 0
CLASSIFICATION_TYPE = U
NORAD_CAT_ID   = 20465
ELEMENT_SET_NO = 999
REV_AT_EPOCH   = 93401
BSTAR          = .11689701E-3
MEAN_MOTION_DOT = .1972E-4
MEAN_MOTION_DDOT = 0

CCSDS_OMM_VERS = 2.0
CREATION_DATE  = 
ORIGINATOR     = 

OBJECT_NAME    = SL-14 R/B
OBJECT_ID      = 1990-010B
CENTER_NAME    = EARTH
REF_FRAME      = TEME
TIME_SYSTEM    = UTC
MEAN_ELEMENT_THEORY = SGP/SGP4

EPOCH          = 2026-01-14T07:46:32.691072
MEAN_MOTION    = 14.83508467
ECCENTRICITY   = .00212308
INCLINATION    = 82.5042
RA_OF_ASC_NODE = 318.4463
ARG_OF_PERICENTER = 116.8369
MEAN_ANOMALY   = 243.5020

EPHEMERIS_TYPE = 0
CLASSIFICATION_TYPE = U
NORAD_CAT_ID   = 20466
ELEMENT_SET_NO = 999
REV_AT_EPOCH   = 92042
BSTAR          = .40166686E-4
MEAN_MOTION_DOT = .356E-5
MEAN_MOTION_DDOT = 0

CCSDS_OMM_VERS = 2.0
CREATION_DATE  = 
ORIGINATOR     = 

OBJECT_NAME    = SL-14 R/B
OBJECT_ID      = 1990-018B
CENTER_NAME    = EARTH
REF_FRAME      = TEME
TIME_SYSTEM    = UTC
MEAN_ELEMENT_THEORY = SGP/SGP4

EPOCH          = 2026-01-14T05:19:29.123904
MEAN_MOTION    = 14.82085181
ECCENTRICITY   = .00148811
INCLINATION    = 82.5215
RA_OF_ASC_NODE = 274.0083
ARG_OF_PERICENTER = 271.9318
MEAN_ANOMALY   = 88.0192

EPHEMERIS_TYPE = 0
CLASSIFICATION_TYPE = U
NORAD_CAT_ID   = 20511
ELEMENT_SET_NO = 999
REV_AT_EPOCH   = 91451
BSTAR          = .3557101E-4
MEAN_MOTION_DOT = .306E-5
MEAN_MOTION_DDOT = 0

CCSDS_OMM_VERS = 2.0
CREATION_DATE  = 
ORIGINATOR     = 

OBJECT_NAME    = HST
OBJECT_ID      = 1990-037B
CENTER_NAME    = EARTH
REF_FRAME      = TEME
TIME_SYSTEM    = UTC
MEAN_ELEMENT_THEORY = SGP/SGP4

EPOCH          = 2026-01-14T10:37:29.672256
MEAN_MOTION    = 15.28532978
ECCENTRICITY   = .00018961
INCLINATION    = 28.4675
RA_OF_ASC_NODE = 49.8067
ARG_OF_PERICENTER = 219.5673
MEAN_ANOMALY   = 140.4784

EPHEMERIS_TYPE = 0
CLASSIFICATION_TYPE = U
NORAD_CAT_ID   = 20580
ELEMENT_SET_NO = 999
REV_AT_EPOCH   = 76500
BSTAR          = .161334E-3
MEAN_MOTION_DOT = .4833E-4
MEAN_MOTION_DDOT = 0

CCSDS_OMM_VERS = 2.0
CREATION_DATE  = 
ORIGINATOR     = 

OBJECT_NAME    = SL-16 R/B
OBJECT_ID      = 1990-046B
CENTER_NAME    = EARTH
REF_FRAME      = TEME
TIME_SYSTEM    = UTC
MEAN_ELEMENT_THEORY = SGP/SGP4

EPOCH          = 2026-01-14T13:07:56.247456
MEAN_MOTION    = 14.15007475
ECCENTRICITY   = .00133587
INCLINATION    = 70.9996
RA_OF_ASC_NODE = 51.6217
ARG_OF_PERICENTER = 17.2690
MEAN_ANOMALY   = 342.8884

EPHEMERIS_TYPE = 0
CLASSIFICATION_TYPE = U
NORAD_CAT_ID   = 20625
ELEMENT_SET_NO = 999
REV_AT_EPOCH   = 84073
BSTAR          = .69664988E-4
MEAN_MOTION_DOT = .87E-6
MEAN_MOTION_DDOT = 0

CCSDS_OMM_VERS = 2.0
CREATION_DATE  = 
ORIGINATOR     = 

OBJECT_NAME    = COSMOS 2084
OBJECT_ID      = 1990-055A
CENTER_NAME    = EARTH
REF_FRAME      = TEME
TIME_SYSTEM    = UTC
MEAN_ELEMENT_THEORY = SGP/SGP4

EPOCH          = 2026-01-14T12:30:14.686848
MEAN_MOTION    = 15.05250565
ECCENTRICITY   = .00261369
INCLINATION    = 62.7890
RA_OF_ASC_NODE = 160.2760
ARG_OF_PERICENTER = 179.6115
MEAN_ANOMALY   = 180.5011

EPHEMERIS_TYPE = 0
CLASSIFICATION_TYPE = U
NORAD_CAT_ID   = 20663
ELEMENT_SET_NO = 999
REV_AT_EPOCH   = 92816
BSTAR          = .13991261E-3
MEAN_MOTION_DOT = .1817E-4
MEAN_MOTION_DDOT = 0

CCSDS_OMM_VERS = 2.0
CREATION_DATE  = 
ORIGINATOR     = 

OBJECT_NAME    = SL-6 R/B(2)
OBJECT_ID      = 1990-055D
CENTER_NAME    = EARTH
REF_FRAME      = TEME
TIME_SYSTEM    = UTC
MEAN_ELEMENT_THEORY = SGP/SGP4

EPOCH          = 2026-01-14T11:56:01.500576
MEAN_MOTION    = 15.03261234
ECCENTRICITY   = .00168913
INCLINATION    = 62.7824
RA_OF_ASC_NODE = 78.0958
ARG_OF_PERICENTER = 328.5281
MEAN_ANOMALY   = 31.4806

EPHEMERIS_TYPE = 0
CLASSIFICATION_TYPE = U
NORAD_CAT_ID   = 20666
ELEMENT_SET_NO = 999
REV_AT_EPOCH   = 93004
BSTAR          = .10880362E-3
MEAN_MOTION_DOT = .1285E-4
MEAN_MOTION_DDOT = 0

CCSDS_OMM_VERS = 2.0
CREATION_DATE  = 
ORIGINATOR     = 

OBJECT_NAME    = SL-8 R/B
OBJECT_ID      = 1990-078B
CENTER_NAME    = EARTH
REF_FRAME      = TEME
TIME_SYSTEM    = UTC
MEAN_ELEMENT_THEORY = SGP/SGP4

EPOCH          = 2026-01-14T05:51:07.306848
MEAN_MOTION    = 14.87065593
ECCENTRICITY   = .03687918
INCLINATION    = 82.9057
RA_OF_ASC_NODE = 300.1937
ARG_OF_PERICENTER = 196.4567
MEAN_ANOMALY   = 162.4423

EPHEMERIS_TYPE = 0
CLASSIFICATION_TYPE = U
NORAD_CAT_ID   = 20775
ELEMENT_SET_NO = 999
REV_AT_EPOCH   = 80120
BSTAR          = .33588423E-3
MEAN_MOTION_DOT = .11088E-3
MEAN_MOTION_DDOT = 0

CCSDS_OMM_VERS = 2.0
CREATION_DATE  = 
ORIGINATOR     = 

OBJECT_NAME    = SL-8 R/B
OBJECT_ID      = 1991-006B
CENTER_NAME    = EARTH
REF_FRAME      = TEME
TIME_SYSTEM    = UTC
MEAN_ELEMENT_THEORY = SGP/SGP4

EPOCH          = 2026-01-14T13:57:04.941216
MEAN_MOTION    = 13.77492277
ECCENTRICITY   = .00223327
INCLINATION    = 82.9406
RA_OF_ASC_NODE = 210.2828
ARG_OF_PERICENTER = 183.8427
MEAN_ANOMALY   = 230.7969

EPHEMERIS_TYPE = 0
CLASSIFICATION_TYPE = U
NORAD_CAT_ID   = 21088
ELEMENT_SET_NO = 999
REV_AT_EPOCH   = 75662
BSTAR          = -.33224714E-4
MEAN_MOTION_DOT = -.18E-6
MEAN_MOTION_DDOT = 0

CCSDS_OMM_VERS = 2.0
CREATION_DATE  = 
ORIGINATOR     = 

OBJECT_NAME    = OKEAN-3
OBJECT_ID      = 1991-039A
CENTER_NAME    = EARTH
REF_FRAME      = TEME
TIME_SYSTEM    = UTC
MEAN_ELEMENT_THEORY = SGP/SGP4

EPOCH          = 2026-01-14T13:02:40.907328
MEAN_MOTION    = 15.04346162
ECCENTRICITY   = .0015476
INCLINATION    = 82.5157
RA_OF_ASC_NODE = 29.2857
ARG_OF_PERICENTER = 148.9929
MEAN_ANOMALY   = 211.2215

EPHEMERIS_TYPE = 0
CLASSIFICATION_TYPE = U
NORAD_CAT_ID   = 21397
ELEMENT_SET_NO = 999
REV_AT_EPOCH   = 85689
BSTAR          = .89868502E-4
MEAN_MOTION_DOT = .1284E-4
MEAN_MOTION_DDOT = 0

CCSDS_OMM_VERS = 2.0
CREATION_DATE  = 
ORIGINATOR     = 

OBJECT_NAME    = COSMOS 2151
OBJECT_ID      = 1991-042A
CENTER_NAME    = EARTH
REF_FRAME      = TEME
TIME_SYSTEM    = UTC
MEAN_ELEMENT_THEORY = SGP/SGP4

EPOCH          = 2026-01-14T13:58:35.957568
MEAN_MOTION    = 14.99845781
ECCENTRICITY   = .00113958
INCLINATION    = 82.4983
RA_OF_ASC_NODE = 135.8524
ARG_OF_PERICENTER = 239.0210
MEAN_ANOMALY   = 120.9895

EPHEMERIS_TYPE = 0
CLASSIFICATION_TYPE = U
NORAD_CAT_ID   = 21422
ELEMENT_SET_NO = 999
REV_AT_EPOCH   = 85508
BSTAR          = .10449096E-3
MEAN_MOTION_DOT = .1322E-4
MEAN_MOTION_DDOT = 0

